[
  {
    "name": "ONEWEB-0721",
    "noradId": "56725",
    "line1": "1 56725U 23068R   26176.23542121  .00000068  00000+0  12793-3 0  9994",
    "line2": "2 56725  86.6764  82.9479 0001853  77.8796 282.2545 13.22470198159004"
  },
  {
    "name": "ONEWEB-0015",
    "noradId": "61594",
    "line1": "1 61594U 24188A   26176.54952043  .00000498  00000+0  13691-2 0  9994",
    "line2": "2 61594  87.8882  19.4280 0001995  70.9040 289.2303 13.11416141 85559"
  },
  {
    "name": "ONEWEB-0687",
    "noradId": "61595",
    "line1": "1 61595U 24188B   26176.50782827  .00000010  00000+0 -77543-5 0  9992",
    "line2": "2 61595  87.9128   4.2206 0002299  83.2190 276.9203 13.17648354 86995"
  },
  {
    "name": "ONEWEB-0688",
    "noradId": "61596",
    "line1": "1 61596U 24188C   26176.53651193 -.00000005  00000+0 -45877-4 0  9996",
    "line2": "2 61596  87.9130   4.2144 0002314  57.1061 303.0293 13.17649226 86995"
  },
  {
    "name": "ONEWEB-0689",
    "noradId": "61597",
    "line1": "1 61597U 24188D   26176.50711287 -.00000396  00000+0 -11523-2 0  9997",
    "line2": "2 61597  87.8895  19.3955 0002128  89.8489 270.2882 13.11414172 85542"
  },
  {
    "name": "ONEWEB-0690",
    "noradId": "61598",
    "line1": "1 61598U 24188E   26176.51729419 -.00000435  00000+0 -12640-2 0  9990",
    "line2": "2 61598  87.8889  19.4049 0001193  87.9686 272.1579 13.11416806 85720"
  },
  {
    "name": "ONEWEB-0691",
    "noradId": "61599",
    "line1": "1 61599U 24188F   26176.51220607 -.00000503  00000+0 -14542-2 0  9995",
    "line2": "2 61599  87.8898  19.3154 0002049  77.5032 282.6326 13.11417263 85575"
  },
  {
    "name": "ONEWEB-0692",
    "noradId": "61600",
    "line1": "1 61600U 24188G   26176.53256285  .00000001  00000+0 -34265-4 0  9999",
    "line2": "2 61600  87.8881  19.4231 0002205 107.5042 252.6327 13.11417984 85563"
  },
  {
    "name": "ONEWEB-0693",
    "noradId": "61601",
    "line1": "1 61601U 24188H   26176.54832578  .00000024  00000+0  29577-4 0  9990",
    "line2": "2 61601  87.9125   4.2320 0001086  81.0837 279.0418 13.17648823 86986"
  },
  {
    "name": "ONEWEB-0695",
    "noradId": "61602",
    "line1": "1 61602U 24188J   26176.50881868 -.00000426  00000+0 -12374-2 0  9996",
    "line2": "2 61602  87.8876  19.4193 0002257  97.1667 262.9718 13.11415790 85550"
  },
  {
    "name": "ONEWEB-0697",
    "noradId": "61603",
    "line1": "1 61603U 24188K   26176.54104335  .00000338  00000+0  91800-3 0  9990",
    "line2": "2 61603  87.8883  19.4036 0002103 108.2748 251.8609 13.11417700 85547"
  },
  {
    "name": "ONEWEB-0698",
    "noradId": "61604",
    "line1": "1 61604U 24188L   26176.51899032 -.00000502  00000+0 -14529-2 0  9990",
    "line2": "2 61604  87.8878  19.4222 0001445 127.0276 233.0984 13.11417035 85563"
  },
  {
    "name": "ONEWEB-0699",
    "noradId": "61605",
    "line1": "1 61605U 24188M   26176.53821209 -.00003224  00000+0 -92731-2 0  9999",
    "line2": "2 61605  87.8820  34.6022 0001921 106.7716 253.3623 13.10388940 84408"
  },
  {
    "name": "ONEWEB-0700",
    "noradId": "61606",
    "line1": "1 61606U 24188N   26176.53991531 -.00002696  00000+0 -77600-2 0  9996",
    "line2": "2 61606  87.8845  34.5125 0002219 100.7009 259.4368 13.10387115 84393"
  },
  {
    "name": "ONEWEB-0701",
    "noradId": "61607",
    "line1": "1 61607U 24188P   26176.55686692  .00000855  00000+0  24134-2 0  9995",
    "line2": "2 61607  87.8832  34.5998 0002049 109.6877 250.4471 13.10364315 84405"
  },
  {
    "name": "ONEWEB-0702",
    "noradId": "61608",
    "line1": "1 61608U 24188Q   26176.56477817  .00000328  00000+0  88892-3 0  9991",
    "line2": "2 61608  87.8898  19.3200 0002443 109.9598 250.1793 13.11414383 85582"
  },
  {
    "name": "ONEWEB-0704",
    "noradId": "61609",
    "line1": "1 61609U 24188R   26176.54500299 -.00001723  00000+0 -49732-2 0  9992",
    "line2": "2 61609  87.8828  34.5901 0002505 107.2088 252.9313 13.10379548 84384"
  },
  {
    "name": "ONEWEB-0705",
    "noradId": "61610",
    "line1": "1 61610U 24188S   26176.55008256 -.00001318  00000+0 -38140-2 0  9992",
    "line2": "2 61610  87.8832  34.5954 0002826  90.8678 269.2773 13.10365963 76554"
  },
  {
    "name": "ONEWEB-0706",
    "noradId": "61611",
    "line1": "1 61611U 24188T   26176.53483433 -.00003635  00000+0 -10452-1 0  9994",
    "line2": "2 61611  87.8818  34.6033 0002333  97.9477 262.1915 13.10390371 84477"
  },
  {
    "name": "ONEWEB-0707",
    "noradId": "61612",
    "line1": "1 61612U 24188U   26176.54161220 -.00002188  00000+0 -63054-2 0  9992",
    "line2": "2 61612  87.8834  34.5957 0002296  96.9399 263.1990 13.10385418 84414"
  },
  {
    "name": "ONEWEB-0708",
    "noradId": "61613",
    "line1": "1 61613U 24188V   26176.56029390  .00002562  00000+0  73039-2 0  9994",
    "line2": "2 61613  87.8823  34.6095 0002330  79.2112 280.9278 13.10358880 84399"
  }
]