OBJECT_NAME,OBJECT_ID,EPOCH,MEAN_MOTION,ECCENTRICITY,INCLINATION,RA_OF_ASC_NODE,ARG_OF_PERICENTER,MEAN_ANOMALY,EPHEMERIS_TYPE,CLASSIFICATION_TYPE,NORAD_CAT_ID,ELEMENT_SET_NO,REV_AT_EPOCH,BSTAR,MEAN_MOTION_DOT,MEAN_MOTION_DDOT
ONEWEB-0721,2023-068R,2026-06-25T05:39:00.392544,13.22470198,.00018536,86.6764,82.9479,77.8796,282.2545,0,U,56725,999,15900,.1279334E-3,.68E-6,0
ONEWEB-0015,2024-188A,2026-06-25T13:11:18.565152,13.11416141,.00019953,87.8882,19.4280,70.9040,289.2303,0,U,61594,999,8555,.13690968E-2,.498E-5,0
ONEWEB-0687,2024-188B,2026-06-25T12:11:16.362528,13.17648354,.00022993,87.9128,4.2206,83.2190,276.9203,0,U,61595,999,8699,-.7754257E-5,.1E-6,0
ONEWEB-0688,2024-188C,2026-06-25T12:52:34.630752,13.17649226,.00023142,87.9130,4.2144,57.1061,303.0293,0,U,61596,999,8699,-.45877396E-4,-.5E-7,0
ONEWEB-0689,2024-188D,2026-06-25T12:10:14.551968,13.11414172,.00021281,87.8895,19.3955,89.8489,270.2882,0,U,61597,999,8554,-.11522735E-2,-.396E-5,0
ONEWEB-0690,2024-188E,2026-06-25T12:24:54.218016,13.11416806,.00011938,87.8889,19.4049,87.9686,272.1579,0,U,61598,999,8572,-.12640243E-2,-.435E-5,0
ONEWEB-0691,2024-188F,2026-06-25T12:17:34.604448,13.11417263,.00020497,87.8898,19.3154,77.5032,282.6326,0,U,61599,999,8557,-.14542409E-2,-.503E-5,0
ONEWEB-0692,2024-188G,2026-06-25T12:46:53.430240,13.11417984,.00022059,87.8881,19.4231,107.5042,252.6327,0,U,61600,999,8556,-.34264814E-4,.1E-7,0
ONEWEB-0693,2024-188H,2026-06-25T13:09:35.347392,13.17648823,.00010864,87.9125,4.2320,81.0837,279.0418,0,U,61601,999,8698,.29577349E-4,.24E-6,0
ONEWEB-0695,2024-188J,2026-06-25T12:12:41.933952,13.11415790,.00022573,87.8876,19.4193,97.1667,262.9718,0,U,61602,999,8555,-.12374412E-2,-.426E-5,0
ONEWEB-0697,2024-188K,2026-06-25T12:59:06.145440,13.11417700,.00021034,87.8883,19.4036,108.2748,251.8609,0,U,61603,999,8554,.91800381E-3,.338E-5,0
ONEWEB-0698,2024-188L,2026-06-25T12:27:20.763648,13.11417035,.00014459,87.8878,19.4222,127.0276,233.0984,0,U,61604,999,8556,-.14528816E-2,-.502E-5,0
ONEWEB-0699,2024-188M,2026-06-25T12:55:01.524576,13.10388940,.00019213,87.8820,34.6022,106.7716,253.3623,0,U,61605,999,8440,-.92731307E-2,-.3224E-4,0
ONEWEB-0700,2024-188N,2026-06-25T12:57:28.682784,13.10387115,.0002219,87.8845,34.5125,100.7009,259.4368,0,U,61606,999,8439,-.77600341E-2,-.2696E-4,0
ONEWEB-0701,2024-188P,2026-06-25T13:21:53.301888,13.10364315,.00020498,87.8832,34.5998,109.6877,250.4471,0,U,61607,999,8440,.24134275E-2,.855E-5,0
ONEWEB-0702,2024-188Q,2026-06-25T13:33:16.833888,13.11414383,.00024432,87.8898,19.3200,109.9598,250.1793,0,U,61608,999,8558,.88892169E-3,.328E-5,0
ONEWEB-0704,2024-188R,2026-06-25T13:04:48.258336,13.10379548,.00025058,87.8828,34.5901,107.2088,252.9313,0,U,61609,999,8438,-.49731595E-2,-.1723E-4,0
ONEWEB-0705,2024-188S,2026-06-25T13:12:07.133184,13.10365963,.00028265,87.8832,34.5954,90.8678,269.2773,0,U,61610,999,7655,-.38140488E-2,-.1318E-4,0
ONEWEB-0706,2024-188T,2026-06-25T12:50:09.686112,13.10390371,.00023339,87.8818,34.6033,97.9477,262.1915,0,U,61611,999,8447,-.10451743E-1,-.3635E-4,0
ONEWEB-0707,2024-188U,2026-06-25T12:59:55.294080,13.10385418,.00022967,87.8834,34.5957,96.9399,263.1990,0,U,61612,999,8441,-.63053993E-2,-.2188E-4,0
ONEWEB-0708,2024-188V,2026-06-25T13:26:49.392960,13.10358880,.00023307,87.8823,34.6095,79.2112,280.9278,0,U,61613,999,8439,.73038777E-2,.2562E-4,0
